NEE-01 PEGASO           
1 39151U 13018B   24038.30366221  .00004110  00000+0  49291-3 0  9995
2 39151  98.0217 154.3969 0016521 105.5951 254.7087 14.84512577582558
ESTCUBE 1               
1 39161U 13021C   24038.16010787  .00002993  00000+0  44654-3 0  9992
2 39161  97.8457 108.6120 0007875 297.1674  62.8732 14.75529424577801
POPACS 1                
1 39268U 13055D   24037.75337600  .00032758  00000+0  63076-3 0  9998
2 39268  80.9865 300.8677 0446267 151.9718 210.6327 14.82419414541007
POPACS 2                
1 39269U 13055E   24037.66243697  .00029262  00000+0  70466-3 0  9998
2 39269  81.0038  21.6197 0573018   2.8678 357.5562 14.51337423536484
POPACS 3                
1 39270U 13055F   24037.50399924  .00010627  00000+0  29649-3 0  9990
2 39270  81.0078  68.3133 0643009 133.7519 231.8786 14.33404990534770
ZACUBE-1 (TSHEPISOSAT)  
1 39417U 13066B   24037.88384977  .00005944  00000+0  64730-3 0  9994
2 39417  97.7175 357.1193 0050902 233.4089 126.2439 14.87423594552057
WNISAT-1                
1 39423U 13066H   24038.49741670  .00001070  00000+0  21345-3 0  9997
2 39423  97.6778 243.3822 0172343  59.6917 302.1206 14.54810735541640
TRITON-1                
1 39427U 13066M   24038.45944015  .00003315  00000+0  48202-3 0  9990
2 39427  97.8434 320.7916 0105764 142.0133 218.8596 14.72798712547156
DELFI-N3XT              
1 39428U 13066N   24038.51461894  .00006141  00000+0  82515-3 0  9992
2 39428  97.8400 320.5450 0105553 150.6476 210.0720 14.75786738546983
GOMX-1                  
1 39430U 13066Q   24038.47916056  .00004027  00000+0  68539-3 0  9996
2 39430  97.7525 280.7135 0141270 308.4547  50.4048 14.63213955543921
CUBEBUG-2 (LO-74)       
1 39440U 13066AA  24038.44167837  .00007192  00000+0  87960-3 0  9994
2 39440  97.8002 345.2075 0071646 342.4846  17.3897 14.81697629550164
NEE-02 KRYSAOR          
1 39441U 13066AB  24037.76734724  .00004706  00000+0  61367-3 0  9995
2 39441  97.8104 340.8655 0076169   4.2625 355.9218 14.78992949548508
FUNCUBE-1 (AO-73)       
1 39444U 13066AE  24037.87012451  .00007070  00000+0  72663-3 0  9994
2 39444  97.7031 359.9481 0048969 215.4328 144.3634 14.89758444550541
UWE-3                   
1 39446U 13066AG  24038.41649911  .00006838  00000+0  79323-3 0  9995
2 39446  97.7659 351.2511 0060865 289.5650  69.9000 14.84398286549880
BRITE-CA1 (TORONTO)     
1 40020U 14033L   24038.38860453  .00002608  00000+0  43090-3 0  9995
2 40020  97.8537 180.3430 0084632 149.0336 211.5900 14.68843640515772
DUCHIFAT-1              
1 40021U 14033M   24037.92473612  .00014160  00000+0  10525-2 0  9994
2 40021  98.0803  15.5657 0013770 171.5055 188.6405 15.03044908524386
NANOSATC-BR1            
1 40024U 14033Q   24037.87222149  .00011076  00000+0  89194-3 0  9990
2 40024  98.0622   4.9704 0008365 227.3648 132.6870 15.00101319524062
QB50P1                  
1 40025U 14033R   24038.40200101  .00008545  00000+0  74342-3 0  9991
2 40025  98.0250 355.2573 0009403 228.2304 131.8113 14.97177216523805
QB50P2                  
1 40032U 14033Y   24037.79940677  .00008378  00000+0  74908-3 0  9991
2 40032  97.9925 347.1525 0008560 226.0446 134.0069 14.96118903523018
PERSEUS-M2              
1 40037U 14033AD  24038.34534754  .00003323  00000+0  35349-3 0  9994
2 40037  97.9208 328.8243 0011880 266.5480  93.4378 14.89613575522844
PERSEUS-M1              
1 40039U 14033AF  24037.74398593  .00003349  00000+0  35855-3 0  9998
2 40039  97.9032 324.6418 0011694 268.4026  91.5851 14.89335999522115
POLYITAN-1              
1 40042U 14033AJ  24037.86786394  .00011522  00000+0  95422-3 0  9993
2 40042  98.0357 357.4238 0011295 223.2625 136.7711 14.98986912523144
TIGRISAT                
1 40043U 14033AK  24038.44507482  .00002985  00000+0  41096-3 0  9999
2 40043  97.6782 207.0339 0056664  10.4040 349.8329 14.77876120518445
AEROCUBE 6A             
1 40045U 14033AM  24038.04398777  .00007059  00000+0  88840-3 0  9997
2 40045  97.6594 216.9689 0052294 352.8089   7.2368 14.81361909518601
AEROCUBE 6B             
1 40046U 14033AN  24037.47980255  .00006411  00000+0  79270-3 0  9990
2 40046  97.6551 215.0292 0050909 350.6909   9.3356 14.82179652518325
UKUBE-1                 
1 40074U 14037F   24038.34152129  .00008298  00000+0  83711-3 0  9993
2 40074  98.3412 320.5396 0005152 124.4312 235.7392 14.91367372519269
BRITE-PL2 (HEWELIUSZ)   
1 40119U 14049B   24038.18982752  .00002980  00000+0  33056-3 0  9990
2 40119  97.8797 138.6047 0017436  76.6466 283.6693 14.87912475513182
GRIFEX                  
1 40379U 15003D   24038.47401676  .00501795  10323-3  13546-2 0  9994
2 40379  99.0737  44.2941 0028171 152.6863 207.5895 15.93566994500002
CP10 (EXOCUBE)          
1 40380U 15003E   24037.93365829  .00068255  00000+0  99381-3 0  9993
2 40380  99.1016  26.4480 0062088 212.8011 146.9376 15.53229081498874
AEROCUBE 5C             
1 40965U 15058B   24037.41537380  .00007269  00000+0  71582-3 0  9999
2 40965  64.7716  45.7132 0181004 349.5913  10.1464 14.81247833237512
AEROCUBE 7              
1 40966U 15058C   24038.18588917  .00010603  00000+0  10079-2 0  9996
2 40966  64.7700  38.2020 0177263 349.0459  10.6808 14.82703919237690
VELOX-II                
1 41171U 15077F   24037.17404207  .00061465  00000+0  12719-2 0  9998
2 41171  14.9914   4.5734 0004943 290.0895  69.8898 15.43892145451190
HORYU-4                 
1 41340U 16012D   24037.58631486  .00012962  00000+0  71753-3 0  9994
2 41340  31.0031 110.6897 0010884  81.9108 278.2765 15.12579786438184
E-ST@R-II               
1 41459U 16025D   24038.44597624  .00116474  00000+0  15120-2 0  9998
2 41459  98.1500 272.1516 0061543 349.1056  10.8859 15.56147061429113
RAVAN                   
1 41849U 16067B   24038.44428508  .00012985  00000+0  78524-3 0  9991
2 41849  98.0528 208.8661 0014871 111.9276 248.3535 15.10705130396224
CELTEE 1                
1 41850U 16067C   24037.96738123  .00007460  00000+0  53774-3 0  9998
2 41850  98.0865 201.0347 0000625  77.7998 282.3296 15.04468979395689
OPTICUBE 04             
1 41851U 16067D   24037.92348117  .00005820  00000+0  45394-3 0  9992
2 41851  98.0551 197.6115 0016485 132.9167 227.3443 15.01472485395539
AEROCUBE 8D             
1 41852U 16067E   24037.97974178  .00009241  00000+0  64992-3 0  9996
2 41852  98.0915 200.5006 0005160 176.1338 183.9928 15.05310307395640
AEROCUBE 8C             
1 41853U 16067F   24037.38938156  .00009772  00000+0  68816-3 0  9996
2 41853  98.0717 198.7989 0008938 119.7467 240.4649 15.05224120395546
PROMETHEUS 2-1          
1 41854U 16067G   24038.39330720  .00017591  00000+0  10298-2 0  9990
2 41854  98.0878 205.2974 0014345 139.8279 220.4013 15.11814751395945
PROMETHEUS 2-3          
1 41855U 16067H   24038.45489219  .00017239  00000+0  10104-2 0  9991
2 41855  98.0806 204.9793 0012195 148.9604 211.2348 15.11800162395957
DIDO-2                  
1 42000U 17008BE  24037.85322486  .00066036  00000+0  93534-3 0  9993
2 42000  97.1658  96.9961 0003417 256.1339 103.9536 15.56265368388203
AALTO-1                 
1 42775U 17036L   24038.07092786  .00049143  00000+0  89712-3 0  9998
2 42775  97.1265  67.9552 0006267 347.9326  12.1774 15.49248350368703
URSA MAIOR              
1 42776U 17036M   24037.64024920  .00063378  00000+0  94354-3 0  9990
2 42776  97.1252  70.0089 0004792 341.1016  19.0060 15.54910031368783
DIAMOND RED             
1 42783U 17036U   24037.63961800  .00115425  00000+0  11544-2 0  9994
2 42783  97.1165  75.0498 0002840 352.3300   7.7916 15.65210807369113
DIAMOND GREEN           
1 42785U 17036W   24037.82456689  .00165265  00000+0  12629-2 0  9993
2 42785  97.1111  76.2886 0001774 344.2786  15.8422 15.71674466369285
DIAMOND BLUE            
1 42786U 17036X   24037.61980016  .00129086  00000+0  11534-2 0  9992
2 42786  97.1163  75.5772 0002489 338.3138  21.8018 15.67983890369218
CICERO 6                
1 42793U 17036AE  24038.07473791  .00072409  00000+0  96693-3 0  9994
2 42793  97.1157  74.3490 0003432 340.5178  19.5947 15.57830673369204
CORVUS BC2              
1 42846U 17042X   24038.51625216  .00004224  00000+0  37727-3 0  9993
2 42846  97.3725 231.0079 0009072 133.7098 226.4878 14.96387587357897
CORVUS BC1              
1 42847U 17042Y   24038.49033324  .00005280  00000+0  46847-3 0  9990
2 42847  97.3733 231.3653 0009408 130.2673 229.9374 14.96540731357905
MIRATA                  
1 43015U 17073C   24037.90439423  .00026781  00000+0  14235-2 0  9991
2 43015  97.6106 284.6900 0189245 347.6323  12.0288 15.01082301336598
MAKERSAT 0              
1 43016U 17073D   24038.20203415  .00016621  00000+0  10139-2 0  9997
2 43016  97.6022 281.0756 0208667   2.4903 357.7305 14.93976391336327
CORVUS BC3              
1 43118U 18004H   24037.76275824  .00072650  00000+0  98548-3 0  9993
2 43118  97.3016 119.1777 0004591 359.8725   0.2528 15.57403285338287
GOMX-4B                 
1 43196U 18015E   24037.89436612  .00042132  00000+0  77197-3 0  9998
2 43196  97.5957 203.1159 0010486  75.7289 284.5125 15.49140270335118
GOMX-4A                 
1 43197U 18015F   24038.48888251  .00049997  00000+0  75140-3 0  9997
2 43197  97.5916 207.3463 0009460  64.9306 295.2928 15.54670328335453
CUBEBEL-1 (BSUSAT-1)    
1 43666U 18083E   24038.04440242  .00308112  00000+0  17313-2 0  9993
2 43666  97.3421  80.2797 0002541 341.9489  18.1687 15.78402006293611
CICERO 10               
1 43690U 18088A   24038.13236003  .00066346  00000+0  10691-2 0  9995
2 43690  85.0220 271.9855 0010750  66.3870 293.8516 15.52626807291706
PROXIMA I               
1 43694U 18088E   24038.07186369  .00084658  00000+0  99907-3 0  9995
2 43694  85.0138 266.2572 0009852  36.0261 324.1664 15.60990379292104
